SUPERVIEW-1 03          
1 43099U 18002A   24234.22038563  .00043271  00000+0  10973-2 0  9998
2 43099  97.3719 314.7057 0003511 183.8471 176.2748 15.39563782366607
SUPERVIEW-1 04          
1 43100U 18002B   24234.21538735  .00048304  00000+0  11599-2 0  9993
2 43100  97.3740 315.4627 0000408 132.8430 227.2851 15.41203137366639
CARTOSAT-2F             
1 43111U 18004A   24234.17983370  .00013951  00000+0  66153-3 0  9998
2 43111  97.4256 292.6098 0001777 137.1355 223.0019 15.19399427366369
CARBONITE 2             
1 43115U 18004E   24234.15519194  .00046006  00000+0  95275-3 0  9993
2 43115  97.2634 305.0994 0006340  46.4401 313.7374 15.45607562367969
LKW-3                   
1 43146U 18006A   24234.19645242  .00020306  00000+0  85462-3 0  9999
2 43146  97.5808   9.2240 0002849 210.5002 149.6069 15.23405786367199
ASNARO-2                
1 43152U 18007A   24234.21988145  .00027095  00000+0  11714-2 0  9992
2 43152  97.4108 240.0427 0001739  90.7669 269.3766 15.22432250366248
XIAOXIANG-2             
1 43155U 18008A   24233.10521904  .02346043  59726-2  27696-2 0  9996
2 43155  97.2081 289.7215 0010410 244.6383 115.3824 16.10011685364968
QUANTUTONG 1            
1 43158U 18008D   24234.10197025  .00158630  00000+0  19404-2 0  9990
2 43158  97.2505 283.3628 0007496 197.3982 162.7019 15.59838681364540
JILIN-1 07              
1 43159U 18008E   24234.20043251  .00012346  00000+0  57163-3 0  9991
2 43159  97.2406 264.8005 0009322 260.4809  99.5373 15.20209503363445
JILIN-1 08              
1 43160U 18008F   24234.15585385  .00013498  00000+0  62976-3 0  9993
2 43160  97.2416 264.4656 0006094 276.8674  83.1869 15.19949004363422
LEMUR-2-URAMCHANSOL     
1 43183U 18014D   24233.20688920  .00046880  00000+0  21683-2 0  9999
2 43183  97.5800 137.9774 0014806 116.3395 243.9362 15.19894419358551
LEMUR-2-KADI            
1 43184U 18014E   24233.71428665  .00027959  00000+0  14517-2 0  9998
2 43184  97.5575 135.9516 0013472 106.1925 254.0791 15.15996923358533
S-NET D                 
1 43186U 18014G   24233.61143772  .00012036  00000+0  83708-3 0  9991
2 43186  97.5829 134.3359 0011488 140.5536 219.6529 15.05593103358190
S-NET B                 
1 43187U 18014H   24233.61403725  .00011908  00000+0  82830-3 0  9991
2 43187  97.5833 134.2928 0012373 136.9613 223.2583 15.05581865358199
S-NET A                 
1 43188U 18014J   24233.61253094  .00011905  00000+0  82786-3 0  9991
2 43188  97.5840 134.4092 0012252 137.4768 222.7410 15.05593434358193
S-NET C                 
1 43189U 18014K   24233.61611452  .00011814  00000+0  82138-3 0  9998
2 43189  97.5853 134.3735 0014102 131.6380 228.6057 15.05580831356741
GOMX-4B                 
1 43196U 18015E   24234.02010336  .00193844  00000+0  11508-2 0  9993
2 43196  97.6030  53.1668 0003513  61.5926 298.5693 15.77462666365691
PAZ                     
1 43215U 18020A   24234.16693274  .00006886  00000+0  33087-3 0  9990
2 43215  97.4467 240.1123 0001766  88.3799 271.7637 15.19145613360054
GOES 17                 
1 43226U 18022A   24232.22757640 -.00000095  00000+0  00000+0 0  9999
2 43226   0.0187 116.1364 0001882  70.8491 118.3075  1.00269466 23739
LKW-4                   
1 43236U 18025A   24233.94907793  .00019713  00000+0  80232-3 0  9994
2 43236  97.5655   6.6502 0005606 152.7539 207.3994 15.24533992357568
ZHUHAI-1 OHS-01         
1 43439U 18040A   24234.14173714  .00117611  00000+0  13705-2 0  9993
2 43439  97.1120 280.8066 0005405  90.2329 269.9548 15.61265881351649
ZHUHAI-1 OVS-02         
1 43440U 18040B   24234.15114963  .00030336  00000+0  10358-2 0  9996
2 43440  97.1132 277.7404 0008631 123.4526 236.7542 15.30226113351419
ZHUHAI-1 OHS-02         
1 43441U 18040C   24234.16400920  .00034067  00000+0  10886-2 0  9990
2 43441  97.1325 281.6171 0014562  97.0050 263.2850 15.32272924351439
ZHUHAI-1 OHS-04         
1 43443U 18040E   24234.18397802  .00129513  00000+0  14757-2 0  9990
2 43443  97.1255 282.4259 0002485 118.5372 241.6137 15.61822612351677
GAOFEN-6                
1 43484U 18048A   24234.15706435  .00002811  00000+0  40918-3 0  9996
2 43484  97.8598 306.8368 0011192 159.4175 200.7488 14.76611963335252
LUOJIA-1 01             
1 43485U 18048B   24234.20049489  .00006167  00000+0  78460-3 0  9993
2 43485  97.8722 311.8345 0011133 136.3266 223.8830 14.81895083335499
PAKTES 1A               
1 43529U 18056A   24234.19572671  .00006918  00000+0  66434-3 0  9995
2 43529  98.0425 357.6738 0024183 153.5272 206.7188 14.93177793332455
PRSS 1                  
1 43530U 18056B   24234.19016713  .00003162  00000+0  42952-3 0  9994
2 43530  97.8607 307.2670 0001562  87.6131 272.5260 14.79526665330000
HAIYANG-1C              
1 43609U 18068A   24234.14370432  .00000596  00000+0  22853-3 0  9996
2 43609  98.6014 302.1794 0007923 266.2479  93.7800 14.34169890311765
SSTL S1-4               
1 43618U 18071A   24234.16694233  .00004073  00000+0  37662-3 0  9998
2 43618  97.5935 118.6579 0004133 206.1164 153.9849 14.95087022323511
HAIYANG-2B              
1 43655U 18081A   24233.54710937  .00000054  00000+0  95793-4 0  9996
2 43655  99.3379 241.1119 0000438 199.5137 160.5999 13.79308026293163
CZ-4B R/B               
1 43656U 18081B   24234.19493171  .00000579  00000+0  19042-3 0  9991
2 43656  99.4379  86.3401 0206638  20.4199 340.5093 14.31309648304155
CFOSAT                  
1 43662U 18083A   24234.20565110  .00010291  00000+0  52787-3 0  9990
2 43662  97.3744 247.0047 0001892 109.5970 250.5468 15.16725167321751
2018-083B               
1 43663U 18083B   24233.64319269  .00254790  00000+0  17935-2 0  9999
2 43663  97.3065 269.1439 0001239  47.4033 312.7336 15.73363166323299
2018-083C               
1 43664U 18083C   24234.16238738  .00058153  00000+0  11293-2 0  9995
2 43664  97.3363 261.7049 0006367  53.9672 306.2167 15.47427369322953
2018-083D               
1 43665U 18083D   24234.17534849  .00064507  00000+0  11925-2 0  9991
2 43665  97.3363 262.8071 0006619  48.9125 311.2697 15.48817900323015
2018-083G               
1 43668U 18083G   24234.16682654  .00996488  48852-3  20044-2 0  9996
2 43668  97.3065 270.5305 0005576 216.2162 143.8739 15.99769358323605
TEN-KOH                 
1 43677U 18084G   24233.87304799  .00007126  00000+0  62745-3 0  9991
2 43677  98.0717  29.3584 0013931 158.6650 201.5154 14.96734016316391
DIWATA-2B               
1 43678U 18084H   24234.17657270  .00004572  00000+0  41567-3 0  9992
2 43678  98.0786  34.1104 0009148 170.5228 189.6166 14.95721469316632
STARS-AO                
1 43679U 18084J   24233.87531026  .00014589  00000+0  10751-2 0  9998
2 43679  98.0648  40.4219 0002517 252.4645 107.6305 15.03432216316985
AUTCUBE 2               
1 43681U 18084K   24233.59481362  .00010784  00000+0  85645-3 0  9995
2 43681  98.0689  36.7875 0008671 111.8493 248.3653 15.00637911316733
METOP-C                 
1 43689U 18087A   24234.18054102  .00000475  00000+0  23697-3 0  9995
2 43689  98.7188 292.6823 0000792 238.8356 121.2743 14.21499432300358
ES'HAIL 2               
1 43700U 18090A   24232.98489515  .00000138  00000+0  00000+0 0  9994
2 43700   0.0213 102.1656 0002735  81.7956 165.2295  1.00273980 20996
TIANPING 1B             
1 43714U 18094E   24234.16547248  .00031136  00000+0  67049-3 0  9995
2 43714  97.3663 253.0627 0009037  51.5183 308.6875 15.44517066320733
MOHAMMED VI-B           
1 43717U 18095A   24234.15427313  .00002838  00000+0  40881-3 0  9990
2 43717  97.9506 305.0435 0001089  76.9734 283.1598 14.77110885309857
HYSIS                   
1 43719U 18096A   24234.15115585  .00003877  00000+0  53562-3 0  9992
2 43719  97.8609 296.5919 0001980 107.7360 252.4068 14.78677684309140
COSMOS 2530             
1 43751U 18097A   24234.14284869  .00000037  00000+0  19595-3 0  9993
2 43751  82.5111 275.0660 0020551  49.8709 310.4167 12.42885933259762
COSMOS 2531             
1 43752U 18097B   24234.16959341  .00000057  00000+0  33826-3 0  9995
2 43752  82.5157 275.8652 0018068  66.9912 293.3071 12.42893270259775
COSMOS 2532             
1 43753U 18097C   24234.19675715  .00000044  00000+0  24176-3 0  9993
2 43753  82.5101 274.9356 0019425  69.0716 291.2441 12.42892929259778
MINXSS-2                
1 43758U 18099A   24233.11904592  .00022415  00000+0  13355-2 0  9991
2 43758  97.5495 294.5584 0017156  99.8927 260.4241 15.11074263312431
SIRION PATHFINDER-2     
1 43759U 18099B   24234.12844544  .00010095  00000+0  73671-3 0  9993
2 43759  97.5227 288.4687 0012355  71.3193 288.9374 15.03819275312261
AISTECHSAT 2            
1 43768U 18099L   24233.60566691  .00011563  00000+0  84110-3 0  9990
2 43768  97.5317 285.9573 0007859  78.8072 281.4037 15.03944484311802
FOX-1CLIFF (AO-95)      
1 43770U 18099N   24233.60201525  .00016394  00000+0  10845-2 0  9995
2 43770  97.5394 290.1136 0014551 139.9134 220.3171 15.07345943312269
2018-099Q               
1 43772U 18099Q   24233.69626348  .00025027  00000+0  14448-2 0  9996
2 43772  97.5194 293.9366 0005742  58.2592 301.9197 15.12303349312464
RANGE-A                 
1 43773U 18099R   24233.69208072  .00011258  00000+0  83049-3 0  9992
2 43773  97.4967 284.8709 0013922 113.6842 246.5846 15.03364972312122
HIBER-2                 
1 43774U 18099S   24233.70272149  .00029640  00000+0  16135-2 0  9996
2 43774  97.5380 295.4279 0009837  91.6273 268.6085 15.14344283312525
MOVE-II                 
1 43780U 18099Y   24234.17650383  .00044265  00000+0  20616-2 0  9994
2 43780  97.5158 296.6962 0007063 116.4583 243.7377 15.19744914312782
VESTA-1                 
1 43781U 18099Z   24233.39582916  .00033697  00000+0  19253-2 0  9996
2 43781  97.5131 290.0648 0007320 119.4033 240.7930 15.12600252312389
SNUSAT-2                
1 43782U 18099AA  24233.12444060  .00014145  00000+0  96201-3 0  9991
2 43782  97.5077 288.4447 0015475  86.0376 274.2620 15.06338987312199
